ONEWEB-0670             
1 55829U 23029AK  23278.33552798 -.00003028  00000+0 -82020-2 0  9997
2 55829  87.8970 125.9570 0002521  89.3340 270.8079 13.14523010 30608
ONEWEB-0671             
1 55830U 23029AL  23277.91448561 -.00000012  00000+0 -61924-4 0  9996
2 55830  87.9230 141.2708 0002125  81.8329 278.3045 13.19725298 28811
ONEWEB-0672             
1 55831U 23029AM  23278.58334491  .00000016  00000+0  00000+0 0  9992
2 55831  87.3823 111.4682 0002888  66.9177 187.4325 13.78031393 31631
ONEWEB-0673             
1 55832U 23029AN  23278.11822378  .00000150  00000+0  34333-3 0  9997
2 55832  87.9124 141.2623 0002130  77.1425 282.9945 13.19723513 29552
ONEWEB-0674             
1 55833U 23029AP  23277.84078068 -.00000233  00000+0 -66399-3 0  9997
2 55833  87.8984 126.0706 0002291  95.4700 264.6691 13.14509962 29837
ONEWEB-0675             
1 55834U 23029AQ  23277.90658710 -.00000010  00000+0 -56195-4 0  9990
2 55834  87.9146 141.2824 0001428  63.5420 296.5859 13.19724692 28838
ONEWEB-0720             
1 55835U 23029AR  23278.12613922  .00000107  00000+0  23527-3 0  9999
2 55835  87.9137 141.2445 0002263  70.4613 289.6764 13.19726567 29479
ONEWEB-0537             
1 56046U 23043A   23278.58334491 -.01393130  00000+0 -39447+0 0  9999
2 56046  87.1455  68.1478 0003178  19.5134 126.0325 14.48969541 29808
