<?xml version="1.0" encoding="UTF-8"?>
<ndm xmlns:xsi="http://www.w3.org/2001/XMLSchema-instance" xsi:noNamespaceSchemaLocation="https://sanaregistry.org/r/ndmxml_unqualified/ndmxml-2.0.0-master-2.0.xsd">
<omm id="CCSDS_OMM_VERS" version="2.0">
<header><CREATION_DATE/><ORIGINATOR/></header><body><segment><metadata><OBJECT_NAME>ONEWEB-0670</OBJECT_NAME><OBJECT_ID>2023-029AK</OBJECT_ID><CENTER_NAME>EARTH</CENTER_NAME><REF_FRAME>TEME</REF_FRAME><TIME_SYSTEM>UTC</TIME_SYSTEM><MEAN_ELEMENT_THEORY>SGP4</MEAN_ELEMENT_THEORY></metadata><data><meanElements><EPOCH>2023-10-05T08:03:09.617472</EPOCH><MEAN_MOTION>13.14523010</MEAN_MOTION><ECCENTRICITY>.0002521</ECCENTRICITY><INCLINATION>87.8970</INCLINATION><RA_OF_ASC_NODE>125.9570</RA_OF_ASC_NODE><ARG_OF_PERICENTER>89.3340</ARG_OF_PERICENTER><MEAN_ANOMALY>270.8079</MEAN_ANOMALY></meanElements><tleParameters><EPHEMERIS_TYPE>0</EPHEMERIS_TYPE><CLASSIFICATION_TYPE>U</CLASSIFICATION_TYPE><NORAD_CAT_ID>55829</NORAD_CAT_ID><ELEMENT_SET_NO>999</ELEMENT_SET_NO><REV_AT_EPOCH>3060</REV_AT_EPOCH><BSTAR>-.8202E-2</BSTAR><MEAN_MOTION_DOT>-.3028E-4</MEAN_MOTION_DOT><MEAN_MOTION_DDOT>0</MEAN_MOTION_DDOT></tleParameters></data></segment></body></omm>
<omm id="CCSDS_OMM_VERS" version="2.0">
<header><CREATION_DATE/><ORIGINATOR/></header><body><segment><metadata><OBJECT_NAME>ONEWEB-0671</OBJECT_NAME><OBJECT_ID>2023-029AL</OBJECT_ID><CENTER_NAME>EARTH</CENTER_NAME><REF_FRAME>TEME</REF_FRAME><TIME_SYSTEM>UTC</TIME_SYSTEM><MEAN_ELEMENT_THEORY>SGP4</MEAN_ELEMENT_THEORY></metadata><data><meanElements><EPOCH>2023-10-04T21:56:51.556704</EPOCH><MEAN_MOTION>13.19725298</MEAN_MOTION><ECCENTRICITY>.0002125</ECCENTRICITY><INCLINATION>87.9230</INCLINATION><RA_OF_ASC_NODE>141.2708</RA_OF_ASC_NODE><ARG_OF_PERICENTER>81.8329</ARG_OF_PERICENTER><MEAN_ANOMALY>278.3045</MEAN_ANOMALY></meanElements><tleParameters><EPHEMERIS_TYPE>0</EPHEMERIS_TYPE><CLASSIFICATION_TYPE>U</CLASSIFICATION_TYPE><NORAD_CAT_ID>55830</NORAD_CAT_ID><ELEMENT_SET_NO>999</ELEMENT_SET_NO><REV_AT_EPOCH>2881</REV_AT_EPOCH><BSTAR>-.61924E-4</BSTAR><MEAN_MOTION_DOT>-.12E-6</MEAN_MOTION_DOT><MEAN_MOTION_DDOT>0</MEAN_MOTION_DDOT></tleParameters></data></segment></body></omm>
<omm id="CCSDS_OMM_VERS" version="2.0">
<header><CREATION_DATE/><ORIGINATOR/></header><body><segment><metadata><OBJECT_NAME>ONEWEB-0672</OBJECT_NAME><OBJECT_ID>2023-029AM</OBJECT_ID><CENTER_NAME>EARTH</CENTER_NAME><REF_FRAME>TEME</REF_FRAME><TIME_SYSTEM>UTC</TIME_SYSTEM><MEAN_ELEMENT_THEORY>SGP4</MEAN_ELEMENT_THEORY></metadata><data><meanElements><EPOCH>2023-10-05T14:00:01.000224</EPOCH><MEAN_MOTION>13.78031393</MEAN_MOTION><ECCENTRICITY>.0002888</ECCENTRICITY><INCLINATION>87.3823</INCLINATION><RA_OF_ASC_NODE>111.4682</RA_OF_ASC_NODE><ARG_OF_PERICENTER>66.9177</ARG_OF_PERICENTER><MEAN_ANOMALY>187.4325</MEAN_ANOMALY></meanElements><tleParameters><EPHEMERIS_TYPE>0</EPHEMERIS_TYPE><CLASSIFICATION_TYPE>U</CLASSIFICATION_TYPE><NORAD_CAT_ID>55831</NORAD_CAT_ID><ELEMENT_SET_NO>999</ELEMENT_SET_NO><REV_AT_EPOCH>3163</REV_AT_EPOCH><BSTAR>0</BSTAR><MEAN_MOTION_DOT>.16E-6</MEAN_MOTION_DOT><MEAN_MOTION_DDOT>0</MEAN_MOTION_DDOT></tleParameters></data></segment></body></omm>
<omm id="CCSDS_OMM_VERS" version="2.0">
<header><CREATION_DATE/><ORIGINATOR/></header><body><segment><metadata><OBJECT_NAME>ONEWEB-0673</OBJECT_NAME><OBJECT_ID>2023-029AN</OBJECT_ID><CENTER_NAME>EARTH</CENTER_NAME><REF_FRAME>TEME</REF_FRAME><TIME_SYSTEM>UTC</TIME_SYSTEM><MEAN_ELEMENT_THEORY>SGP4</MEAN_ELEMENT_THEORY></metadata><data><meanElements><EPOCH>2023-10-05T02:50:14.534592</EPOCH><MEAN_MOTION>13.19723513</MEAN_MOTION><ECCENTRICITY>.000213</ECCENTRICITY><INCLINATION>87.9124</INCLINATION><RA_OF_ASC_NODE>141.2623</RA_OF_ASC_NODE><ARG_OF_PERICENTER>77.1425</ARG_OF_PERICENTER><MEAN_ANOMALY>282.9945</MEAN_ANOMALY></meanElements><tleParameters><EPHEMERIS_TYPE>0</EPHEMERIS_TYPE><CLASSIFICATION_TYPE>U</CLASSIFICATION_TYPE><NORAD_CAT_ID>55832</NORAD_CAT_ID><ELEMENT_SET_NO>999</ELEMENT_SET_NO><REV_AT_EPOCH>2955</REV_AT_EPOCH><BSTAR>.34333E-3</BSTAR><MEAN_MOTION_DOT>.15E-5</MEAN_MOTION_DOT><MEAN_MOTION_DDOT>0</MEAN_MOTION_DDOT></tleParameters></data></segment></body></omm>
<omm id="CCSDS_OMM_VERS" version="2.0">
<header><CREATION_DATE/><ORIGINATOR/></header><body><segment><metadata><OBJECT_NAME>ONEWEB-0674</OBJECT_NAME><OBJECT_ID>2023-029AP</OBJECT_ID><CENTER_NAME>EARTH</CENTER_NAME><REF_FRAME>TEME</REF_FRAME><TIME_SYSTEM>UTC</TIME_SYSTEM><MEAN_ELEMENT_THEORY>SGP4</MEAN_ELEMENT_THEORY></metadata><data><meanElements><EPOCH>2023-10-04T20:10:43.450752</EPOCH><MEAN_MOTION>13.14509962</MEAN_MOTION><ECCENTRICITY>.0002291</ECCENTRICITY><INCLINATION>87.8984</INCLINATION><RA_OF_ASC_NODE>126.0706</RA_OF_ASC_NODE><ARG_OF_PERICENTER>95.4700</ARG_OF_PERICENTER><MEAN_ANOMALY>264.6691</MEAN_ANOMALY></meanElements><tleParameters><EPHEMERIS_TYPE>0</EPHEMERIS_TYPE><CLASSIFICATION_TYPE>U</CLASSIFICATION_TYPE><NORAD_CAT_ID>55833</NORAD_CAT_ID><ELEMENT_SET_NO>999</ELEMENT_SET_NO><REV_AT_EPOCH>2983</REV_AT_EPOCH><BSTAR>-.66399E-3</BSTAR><MEAN_MOTION_DOT>-.233E-5</MEAN_MOTION_DOT><MEAN_MOTION_DDOT>0</MEAN_MOTION_DDOT></tleParameters></data></segment></body></omm>
<omm id="CCSDS_OMM_VERS" version="2.0">
<header><CREATION_DATE/><ORIGINATOR/></header><body><segment><metadata><OBJECT_NAME>ONEWEB-0675</OBJECT_NAME><OBJECT_ID>2023-029AQ</OBJECT_ID><CENTER_NAME>EARTH</CENTER_NAME><REF_FRAME>TEME</REF_FRAME><TIME_SYSTEM>UTC</TIME_SYSTEM><MEAN_ELEMENT_THEORY>SGP4</MEAN_ELEMENT_THEORY></metadata><data><meanElements><EPOCH>2023-10-04T21:45:29.125440</EPOCH><MEAN_MOTION>13.19724692</MEAN_MOTION><ECCENTRICITY>.0001428</ECCENTRICITY><INCLINATION>87.9146</INCLINATION><RA_OF_ASC_NODE>141.2824</RA_OF_ASC_NODE><ARG_OF_PERICENTER>63.5420</ARG_OF_PERICENTER><MEAN_ANOMALY>296.5859</MEAN_ANOMALY></meanElements><tleParameters><EPHEMERIS_TYPE>0</EPHEMERIS_TYPE><CLASSIFICATION_TYPE>U</CLASSIFICATION_TYPE><NORAD_CAT_ID>55834</NORAD_CAT_ID><ELEMENT_SET_NO>999</ELEMENT_SET_NO><REV_AT_EPOCH>2883</REV_AT_EPOCH><BSTAR>-.56195E-4</BSTAR><MEAN_MOTION_DOT>-.1E-6</MEAN_MOTION_DOT><MEAN_MOTION_DDOT>0</MEAN_MOTION_DDOT></tleParameters></data></segment></body></omm>
<omm id="CCSDS_OMM_VERS" version="2.0">
<header><CREATION_DATE/><ORIGINATOR/></header><body><segment><metadata><OBJECT_NAME>ONEWEB-0720</OBJECT_NAME><OBJECT_ID>2023-029AR</OBJECT_ID><CENTER_NAME>EARTH</CENTER_NAME><REF_FRAME>TEME</REF_FRAME><TIME_SYSTEM>UTC</TIME_SYSTEM><MEAN_ELEMENT_THEORY>SGP4</MEAN_ELEMENT_THEORY></metadata><data><meanElements><EPOCH>2023-10-05T03:01:38.428608</EPOCH><MEAN_MOTION>13.19726567</MEAN_MOTION><ECCENTRICITY>.0002263</ECCENTRICITY><INCLINATION>87.9137</INCLINATION><RA_OF_ASC_NODE>141.2445</RA_OF_ASC_NODE><ARG_OF_PERICENTER>70.4613</ARG_OF_PERICENTER><MEAN_ANOMALY>289.6764</MEAN_ANOMALY></meanElements><tleParameters><EPHEMERIS_TYPE>0</EPHEMERIS_TYPE><CLASSIFICATION_TYPE>U</CLASSIFICATION_TYPE><NORAD_CAT_ID>55835</NORAD_CAT_ID><ELEMENT_SET_NO>999</ELEMENT_SET_NO><REV_AT_EPOCH>2947</REV_AT_EPOCH><BSTAR>.23527E-3</BSTAR><MEAN_MOTION_DOT>.107E-5</MEAN_MOTION_DOT><MEAN_MOTION_DDOT>0</MEAN_MOTION_DDOT></tleParameters></data></segment></body></omm>
<omm id="CCSDS_OMM_VERS" version="2.0">
<header><CREATION_DATE/><ORIGINATOR/></header><body><segment><metadata><OBJECT_NAME>ONEWEB-0537</OBJECT_NAME><OBJECT_ID>2023-043A</OBJECT_ID><CENTER_NAME>EARTH</CENTER_NAME><REF_FRAME>TEME</REF_FRAME><TIME_SYSTEM>UTC</TIME_SYSTEM><MEAN_ELEMENT_THEORY>SGP4</MEAN_ELEMENT_THEORY></metadata><data><meanElements><EPOCH>2023-10-05T14:00:01.000224</EPOCH><MEAN_MOTION>14.48969541</MEAN_MOTION><ECCENTRICITY>.0003178</ECCENTRICITY><INCLINATION>87.1455</INCLINATION><RA_OF_ASC_NODE>68.1478</RA_OF_ASC_NODE><ARG_OF_PERICENTER>19.5134</ARG_OF_PERICENTER><MEAN_ANOMALY>126.0325</MEAN_ANOMALY></meanElements><tleParameters><EPHEMERIS_TYPE>0</EPHEMERIS_TYPE><CLASSIFICATION_TYPE>U</CLASSIFICATION_TYPE><NORAD_CAT_ID>56046</NORAD_CAT_ID><ELEMENT_SET_NO>999</ELEMENT_SET_NO><REV_AT_EPOCH>2980</REV_AT_EPOCH><BSTAR>-.39447E+0</BSTAR><MEAN_MOTION_DOT>-.139313E-1</MEAN_MOTION_DOT><MEAN_MOTION_DDOT>0</MEAN_MOTION_DDOT></tleParameters></data></segment></body></omm>

</ndm>
